{"type": "FeatureCollection", "features": [ {"type": "Feature", "properties": {"norad_id": 28659, "name": "DIRECTV 8", "group": "intelsat", "lat": -0.019782640941447473, "lon": -87.91458139847859, "alt_km": 35773.296820611955, "timestamp": "2025-12-11T20:41:14.754660+00:00", "meta": {"OBJECT_NAME": "DIRECTV 8", "OBJECT_ID": "2005-019A", "EPOCH": "2025-12-11T14:39:23.483808", "MEAN_MOTION": 1.00271584, "ECCENTRICITY": 0.00030607, "INCLINATION": 0.0149, "RA_OF_ASC_NODE": 51.2096, "ARG_OF_PERICENTER": 213.1918, "MEAN_ANOMALY": 276.9728, "EPHEMERIS_TYPE": 0, "CLASSIFICATION_TYPE": "U", "NORAD_CAT_ID": 28659, "ELEMENT_SET_NO": 999, "REV_AT_EPOCH": 7519, "BSTAR": 0, "MEAN_MOTION_DOT": 9e-08, "MEAN_MOTION_DDOT": 0}, "tle": {"line1": "1 28659U 05019A   25345.61068847  .00000009  00000+0  00000+0 0  9991", "line2": "2 28659   0.0149  51.2096 0003060 213.1918 276.9728  1.00271584 75194"}}, "geometry": {"type": "Point", "coordinates": [-87.91458139847859, -0.019782640941447473]}}, {"type": "Feature", "properties": {"norad_id": 28702, "name": "GALAXY 28 (G-28)", "group": "intelsat", "lat": -1.865631785921351, "lon": -57.577245881497575, "alt_km": 35777.576356415186, "timestamp": "2025-12-11T20:41:14.754671+00:00", "meta": {"OBJECT_NAME": "GALAXY 28 (G-28)", "OBJECT_ID": "2005-022A", "EPOCH": "2025-12-11T13:05:24.982656", "MEAN_MOTION": 1.00270698, "ECCENTRICITY": 0.00027272, "INCLINATION": 2.8156, "RA_OF_ASC_NODE": 81.2954, "ARG_OF_PERICENTER": 183.0349, "MEAN_ANOMALY": 283.8399, "EPHEMERIS_TYPE": 0, "CLASSIFICATION_TYPE": "U", "NORAD_CAT_ID": 28702, "ELEMENT_SET_NO": 999, "REV_AT_EPOCH": 5009, "BSTAR": 0, "MEAN_MOTION_DOT": -1.8e-06, "MEAN_MOTION_DDOT": 0}, "tle": {"line1": "1 28702U 05022A   25345.54542804 -.00000180  00000+0  00000+0 0  9997", "line2": "2 28702   2.8156  81.2954 0002727 183.0349 283.8399  1.00270698 50097"}}, "geometry": {"type": "Point", "coordinates": [-57.577245881497575, -1.865631785921351]}}, {"type": "Feature", "properties": {"norad_id": 29236, "name": "GALAXY 16 (G-16)", "group": "intelsat", "lat": -0.0013013804882063909, "lon": -67.86556924578676, "alt_km": 35776.56658145944, "timestamp": "2025-12-11T20:41:14.754683+00:00", "meta": {"OBJECT_NAME": "GALAXY 16 (G-16)", "OBJECT_ID": "2006-023A", "EPOCH": "2025-12-11T13:02:25.269792", "MEAN_MOTION": 1.00272333, "ECCENTRICITY": 0.000268, "INCLINATION": 0.0464, "RA_OF_ASC_NODE": 137.3399, "ARG_OF_PERICENTER": 120.4767, "MEAN_ANOMALY": 279.2842, "EPHEMERIS_TYPE": 0, "CLASSIFICATION_TYPE": "U", "NORAD_CAT_ID": 29236, "ELEMENT_SET_NO": 999, "REV_AT_EPOCH": 7109, "BSTAR": 0, "MEAN_MOTION_DOT": -1.2e-06, "MEAN_MOTION_DDOT": 0}, "tle": {"line1": "1 29236U 06023A   25345.54334803 -.00000120  00000+0  00000+0 0  9994", "line2": "2 29236   0.0464 137.3399 0002680 120.4767 279.2842  1.00272333 71098"}}, "geometry": {"type": "Point", "coordinates": [-67.86556924578676, -0.0013013804882063909]}}, {"type": "Feature", "properties": {"norad_id": 29494, "name": "DIRECTV 9S", "group": "intelsat", "lat": -0.8856754184084709, "lon": -70.08336447546237, "alt_km": 35774.634634628754, "timestamp": "2025-12-11T20:41:14.754694+00:00", "meta": {"OBJECT_NAME": "DIRECTV 9S", "OBJECT_ID": "2006-043A", "EPOCH": "2025-12-11T13:01:47.830080", "MEAN_MOTION": 1.00271791, "ECCENTRICITY": 0.00030597, "INCLINATION": 1.9374, "RA_OF_ASC_NODE": 83.2222, "ARG_OF_PERICENTER": 180.0527, "MEAN_ANOMALY": 271.4643, "EPHEMERIS_TYPE": 0, "CLASSIFICATION_TYPE": "U", "NORAD_CAT_ID": 29494, "ELEMENT_SET_NO": 999, "REV_AT_EPOCH": 4950, "BSTAR": 0, "MEAN_MOTION_DOT": -1.06e-06, "MEAN_MOTION_DDOT": 0}, "tle": {"line1": "1 29494U 06043A   25345.54291470 -.00000106  00000+0  00000+0 0  9998", "line2": "2 29494   1.9374  83.2222 0003059 180.0527 271.4643  1.00271791 49506"}}, "geometry": {"type": "Point", "coordinates": [-70.08336447546237, -0.8856754184084709]}}, {"type": "Feature", "properties": {"norad_id": 31307, "name": "GALAXY 17 (G-17)", "group": "intelsat", "lat": -1.7432226562958941, "lon": -53.825869221301836, "alt_km": 35773.63694825824, "timestamp": "2025-12-11T20:41:14.754705+00:00", "meta": {"OBJECT_NAME": "GALAXY 17 (G-17)", "OBJECT_ID": "2007-016B", "EPOCH": "2025-12-11T13:06:24.888096", "MEAN_MOTION": 1.00272496, "ECCENTRICITY": 0.00059137, "INCLINATION": 2.4973, "RA_OF_ASC_NODE": 82.2972, "ARG_OF_PERICENTER": 163.7407, "MEAN_ANOMALY": 306.0857, "EPHEMERIS_TYPE": 0, "CLASSIFICATION_TYPE": "U", "NORAD_CAT_ID": 31307, "ELEMENT_SET_NO": 999, "REV_AT_EPOCH": 6792, "BSTAR": 0, "MEAN_MOTION_DOT": -1.99e-06, "MEAN_MOTION_DDOT": 0}, "tle": {"line1": "1 31307U 07016B   25345.54612139 -.00000199  00000+0  00000+0 0  9996", "line2": "2 31307   2.4973  82.2972 0005913 163.7407 306.0857  1.00272496 67921"}}, "geometry": {"type": "Point", "coordinates": [-53.825869221301836, -1.7432226562958941]}}, {"type": "Feature", "properties": {"norad_id": 31862, "name": "DIRECTV 10", "group": "intelsat", "lat": -0.001231955935124368, "lon": -71.6561431856129, "alt_km": 35785.491248735634, "timestamp": "2025-12-11T20:41:14.754717+00:00", "meta": {"OBJECT_NAME": "DIRECTV 10", "OBJECT_ID": "2007-032A", "EPOCH": "2025-12-11T13:01:17.877792", "MEAN_MOTION": 1.00271451, "ECCENTRICITY": 3.226e-05, "INCLINATION": 0.02, "RA_OF_ASC_NODE": 159.3948, "ARG_OF_PERICENTER": 69.2336, "MEAN_ANOMALY": 304.4155, "EPHEMERIS_TYPE": 0, "CLASSIFICATION_TYPE": "U", "NORAD_CAT_ID": 31862, "ELEMENT_SET_NO": 999, "REV_AT_EPOCH": 4371, "BSTAR": 0, "MEAN_MOTION_DOT": -9.6e-07, "MEAN_MOTION_DDOT": 0}, "tle": {"line1": "1 31862U 07032A   25345.54256803 -.00000096  00000+0  00000+0 0  9998", "line2": "2 31862   0.0200 159.3948 0000322  69.2336 304.4155  1.00271451 43717"}}, "geometry": {"type": "Point", "coordinates": [-71.6561431856129, -0.001231955935124368]}}, {"type": "Feature", "properties": {"norad_id": 32253, "name": "INTELSAT 11 (IS-11)", "group": "intelsat", "lat": -0.002999080914312878, "lon": -99.3073056910469, "alt_km": 36095.52105957983, "timestamp": "2025-12-11T20:41:14.754728+00:00", "meta": {"OBJECT_NAME": "INTELSAT 11 (IS-11)", "OBJECT_ID": "2007-044B", "EPOCH": "2025-12-11T12:53:48.594336", "MEAN_MOTION": 0.990482, "ECCENTRICITY": 0.00089643, "INCLINATION": 3.0774, "RA_OF_ASC_NODE": 80.9892, "ARG_OF_PERICENTER": 165.4381, "MEAN_ANOMALY": 258.4913, "EPHEMERIS_TYPE": 0, "CLASSIFICATION_TYPE": "U", "NORAD_CAT_ID": 32253, "ELEMENT_SET_NO": 999, "REV_AT_EPOCH": 6659, "BSTAR": 0, "MEAN_MOTION_DOT": 8.1e-07, "MEAN_MOTION_DDOT": 0}, "tle": {"line1": "1 32253U 07044B   25345.53736799  .00000081  00000+0  00000+0 0  9995", "line2": "2 32253   3.0774  80.9892 0008964 165.4381 258.4913  0.99048200 66599"}}, "geometry": {"type": "Point", "coordinates": [-99.3073056910469, -0.002999080914312878]}}, {"type": "Feature", "properties": {"norad_id": 32388, "name": "HORIZONS-2", "group": "intelsat", "lat": -1.7310145272701425, "lon": -42.64452684272766, "alt_km": 35772.153991661944, "timestamp": "2025-12-11T20:41:14.754739+00:00", "meta": {"OBJECT_NAME": "HORIZONS-2", "OBJECT_ID": "2007-063B", "EPOCH": "2025-12-11T13:09:32.089248", "MEAN_MOTION": 1.00270097, "ECCENTRICITY": 0.00049451, "INCLINATION": 2.1187, "RA_OF_ASC_NODE": 82.9727, "ARG_OF_PERICENTER": 188.9575, "MEAN_ANOMALY": 292.1698, "EPHEMERIS_TYPE": 0, "CLASSIFICATION_TYPE": "U", "NORAD_CAT_ID": 32388, "ELEMENT_SET_NO": 999, "REV_AT_EPOCH": 6593, "BSTAR": 0, "MEAN_MOTION_DOT": -2.46e-06, "MEAN_MOTION_DDOT": 0}, "tle": {"line1": "1 32388U 07063B   25345.54828807 -.00000246  00000+0  00000+0 0  9992", "line2": "2 32388   2.1187  82.9727 0004945 188.9575 292.1698  1.00270097 65931"}}, "geometry": {"type": "Point", "coordinates": [-42.64452684272766, -1.7310145272701425]}}, {"type": "Feature", "properties": {"norad_id": 32729, "name": "DIRECTV 11", "group": "intelsat", "lat": 0.02038532133993943, "lon": -68.06569962265819, "alt_km": 35787.63456347543, "timestamp": "2025-12-11T20:41:14.754750+00:00", "meta": {"OBJECT_NAME": "DIRECTV 11", "OBJECT_ID": "2008-013A", "EPOCH": "2025-12-11T13:02:25.269792", "MEAN_MOTION": 1.00269731, "ECCENTRICITY": 5.401e-05, "INCLINATION": 0.0399, "RA_OF_ASC_NODE": 173.2393, "ARG_OF_PERICENTER": 3.3068, "MEAN_ANOMALY": 0.3694, "EPHEMERIS_TYPE": 0, "CLASSIFICATION_TYPE": "U", "NORAD_CAT_ID": 32729, "ELEMENT_SET_NO": 999, "REV_AT_EPOCH": 4371, "BSTAR": 0, "MEAN_MOTION_DOT": -1.18e-06, "MEAN_MOTION_DDOT": 0}, "tle": {"line1": "1 32729U 08013A   25345.54334803 -.00000118  00000+0  00000+0 0  9993", "line2": "2 32729   0.0399 173.2393 0000540   3.3068   0.3694  1.00269731 43719"}}, "geometry": {"type": "Point", "coordinates": [-68.06569962265819, 0.02038532133993943]}}, {"type": "Feature", "properties": {"norad_id": 32951, "name": "GALAXY 18 (G-18)", "group": "intelsat", "lat": -0.029936695645339406, "lon": -91.87979129823307, "alt_km": 35773.44889780294, "timestamp": "2025-12-11T20:41:14.754762+00:00", "meta": {"OBJECT_NAME": "GALAXY 18 (G-18)", "OBJECT_ID": "2008-024A", "EPOCH": "2025-12-11T12:55:33.426912", "MEAN_MOTION": 1.00270947, "ECCENTRICITY": 0.00030529, "INCLINATION": 0.0188, "RA_OF_ASC_NODE": 318.3311, "ARG_OF_PERICENTER": 304.0783, "MEAN_ANOMALY": 248.972, "EPHEMERIS_TYPE": 0, "CLASSIFICATION_TYPE": "U", "NORAD_CAT_ID": 32951, "ELEMENT_SET_NO": 999, "REV_AT_EPOCH": 4397, "BSTAR": 0, "MEAN_MOTION_DOT": 3.2e-07, "MEAN_MOTION_DDOT": 0}, "tle": {"line1": "1 32951U 08024A   25345.53858133  .00000032  00000+0  00000+0 0  9992", "line2": "2 32951   0.0188 318.3311 0003052 304.0783 248.9720  1.00270947 43979"}}, "geometry": {"type": "Point", "coordinates": [-91.87979129823307, -0.029936695645339406]}}]}